{"type": "FeatureCollection", "features": [ {"type": "Feature", "properties": {"norad_id": 34077, "name": "IRIDIUM 33 DEB", "group": "iridium-33-debris", "lat": 85.58697862040653, "lon": -179.696343170403, "alt_km": 663.9714635525679, "timestamp": "2025-12-04T05:42:43.757078+00:00", "meta": {"OBJECT_NAME": "IRIDIUM 33 DEB", "OBJECT_ID": "1997-051CL", "EPOCH": "2025-12-03T18:22:49.192896", "MEAN_MOTION": 14.64588497, "ECCENTRICITY": 0.00109402, "INCLINATION": 86.3874, "RA_OF_ASC_NODE": 55.4594, "ARG_OF_PERICENTER": 67.7769, "MEAN_ANOMALY": 56.8334, "EPHEMERIS_TYPE": 0, "CLASSIFICATION_TYPE": "U", "NORAD_CAT_ID": 34077, "ELEMENT_SET_NO": 999, "REV_AT_EPOCH": 88201, "BSTAR": 0.0026047807, "MEAN_MOTION_DOT": 0.00013874, "MEAN_MOTION_DDOT": 0}, "tle": {"line1": "1 34077U 97051CL  25337.76584714  .00013874  00000+0  26048-2 0  9999", "line2": "2 34077  86.3874  55.4594 0010940  67.7769  56.8334 14.64588497882011"}}, "geometry": {"type": "Point", "coordinates": [-179.696343170403, 85.58697862040653]}}, {"type": "Feature", "properties": {"norad_id": 34079, "name": "IRIDIUM 33 DEB", "group": "iridium-33-debris", "lat": -55.05588444394904, "lon": -162.27095268011487, "alt_km": 630.878961372583, "timestamp": "2025-12-04T05:42:43.757088+00:00", "meta": {"OBJECT_NAME": "IRIDIUM 33 DEB", "OBJECT_ID": "1997-051CN", "EPOCH": "2025-12-03T09:30:48.355200", "MEAN_MOTION": 14.83132899, "ECCENTRICITY": 0.00067221, "INCLINATION": 86.3782, "RA_OF_ASC_NODE": 12.9106, "ARG_OF_PERICENTER": 36.4792, "MEAN_ANOMALY": 28.0106, "EPHEMERIS_TYPE": 0, "CLASSIFICATION_TYPE": "U", "NORAD_CAT_ID": 34079, "ELEMENT_SET_NO": 999, "REV_AT_EPOCH": 88839, "BSTAR": 0.0021223688, "MEAN_MOTION_DOT": 0.00017354, "MEAN_MOTION_DDOT": 0}, "tle": {"line1": "1 34079U 97051CN  25337.39639300  .00017354  00000+0  21224-2 0  9990", "line2": "2 34079  86.3782  12.9106 0006722  36.4792  28.0106 14.83132899888397"}}, "geometry": {"type": "Point", "coordinates": [-162.27095268011487, -55.05588444394904]}}, {"type": "Feature", "properties": {"norad_id": 34088, "name": "IRIDIUM 33 DEB", "group": "iridium-33-debris", "lat": 86.29016193432464, "lon": 137.5221390676276, "alt_km": 589.948018350322, "timestamp": "2025-12-04T05:42:43.757098+00:00", "meta": {"OBJECT_NAME": "IRIDIUM 33 DEB", "OBJECT_ID": "1997-051CX", "EPOCH": "2025-12-03T15:22:04.075680", "MEAN_MOTION": 14.90649163, "ECCENTRICITY": 0.00051577, "INCLINATION": 86.3859, "RA_OF_ASC_NODE": 34.9027, "ARG_OF_PERICENTER": 210.2591, "MEAN_ANOMALY": 275.3448, "EPHEMERIS_TYPE": 0, "CLASSIFICATION_TYPE": "U", "NORAD_CAT_ID": 34088, "ELEMENT_SET_NO": 999, "REV_AT_EPOCH": 88606, "BSTAR": 0.0037972295, "MEAN_MOTION_DOT": 0.00037388, "MEAN_MOTION_DDOT": 0}, "tle": {"line1": "1 34088U 97051CX  25337.64032495  .00037388  00000+0  37972-2 0  9996", "line2": "2 34088  86.3859  34.9027 0005157 210.2591 275.3448 14.90649163886061"}}, "geometry": {"type": "Point", "coordinates": [137.5221390676276, 86.29016193432464]}}, {"type": "Feature", "properties": {"norad_id": 34091, "name": "IRIDIUM 33 DEB", "group": "iridium-33-debris", "lat": -33.99092105142658, "lon": -106.8033691170368, "alt_km": 641.2034420020473, "timestamp": "2025-12-04T05:42:43.757108+00:00", "meta": {"OBJECT_NAME": "IRIDIUM 33 DEB", "OBJECT_ID": "1997-051DA", "EPOCH": "2025-12-03T12:31:35.787936", "MEAN_MOTION": 14.80633508, "ECCENTRICITY": 0.00329218, "INCLINATION": 86.3425, "RA_OF_ASC_NODE": 71.0519, "ARG_OF_PERICENTER": 326.4248, "MEAN_ANOMALY": 33.4886, "EPHEMERIS_TYPE": 0, "CLASSIFICATION_TYPE": "U", "NORAD_CAT_ID": 34091, "ELEMENT_SET_NO": 999, "REV_AT_EPOCH": 87730, "BSTAR": 0.0066529067, "MEAN_MOTION_DOT": 0.00051895, "MEAN_MOTION_DDOT": 0}, "tle": {"line1": "1 34091U 97051DA  25337.52194199  .00051895  00000+0  66529-2 0  9996", "line2": "2 34091  86.3425  71.0519 0032921 326.4248  33.4886 14.80633508877301"}}, "geometry": {"type": "Point", "coordinates": [-106.8033691170368, -33.99092105142658]}}, {"type": "Feature", "properties": {"norad_id": 34097, "name": "IRIDIUM 33 DEB", "group": "iridium-33-debris", "lat": 85.32334959462045, "lon": 59.48262437255343, "alt_km": 736.1912251070144, "timestamp": "2025-12-04T05:42:43.757118+00:00", "meta": {"OBJECT_NAME": "IRIDIUM 33 DEB", "OBJECT_ID": "1997-051DG", "EPOCH": "2025-12-03T12:34:25.588128", "MEAN_MOTION": 14.34661365, "ECCENTRICITY": 0.00836647, "INCLINATION": 86.2007, "RA_OF_ASC_NODE": 5.4756, "ARG_OF_PERICENTER": 32.0999, "MEAN_ANOMALY": 328.5251, "EPHEMERIS_TYPE": 0, "CLASSIFICATION_TYPE": "U", "NORAD_CAT_ID": 34097, "ELEMENT_SET_NO": 999, "REV_AT_EPOCH": 86987, "BSTAR": 0.0018322264, "MEAN_MOTION_DOT": 5.41e-05, "MEAN_MOTION_DDOT": 0}, "tle": {"line1": "1 34097U 97051DG  25337.52390727  .00005410  00000+0  18322-2 0  9997", "line2": "2 34097  86.2007   5.4756 0083664  32.0999 328.5251 14.34661365869877"}}, "geometry": {"type": "Point", "coordinates": [59.48262437255343, 85.32334959462045]}}, {"type": "Feature", "properties": {"norad_id": 34145, "name": "IRIDIUM 33 DEB", "group": "iridium-33-debris", "lat": 53.67477266030639, "lon": 151.1424527836243, "alt_km": 707.013514578236, "timestamp": "2025-12-04T05:42:43.757129+00:00", "meta": {"OBJECT_NAME": "IRIDIUM 33 DEB", "OBJECT_ID": "1997-051DY", "EPOCH": "2025-12-03T17:28:33.100896", "MEAN_MOTION": 14.42185911, "ECCENTRICITY": 0.00553279, "INCLINATION": 86.2112, "RA_OF_ASC_NODE": 336.5404, "ARG_OF_PERICENTER": 122.4849, "MEAN_ANOMALY": 238.1716, "EPHEMERIS_TYPE": 0, "CLASSIFICATION_TYPE": "U", "NORAD_CAT_ID": 34145, "ELEMENT_SET_NO": 999, "REV_AT_EPOCH": 87508, "BSTAR": 0.0014919446, "MEAN_MOTION_DOT": 5.023e-05, "MEAN_MOTION_DDOT": 0}, "tle": {"line1": "1 34145U 97051DY  25337.72816089  .00005023  00000+0  14919-2 0  9995", "line2": "2 34145  86.2112 336.5404 0055327 122.4849 238.1716 14.42185911875088"}}, "geometry": {"type": "Point", "coordinates": [151.1424527836243, 53.67477266030639]}}, {"type": "Feature", "properties": {"norad_id": 34146, "name": "IRIDIUM 33 DEB", "group": "iridium-33-debris", "lat": -81.90473594693856, "lon": -33.63539953799718, "alt_km": 720.4222241273083, "timestamp": "2025-12-04T05:42:43.757139+00:00", "meta": {"OBJECT_NAME": "IRIDIUM 33 DEB", "OBJECT_ID": "1997-051DZ", "EPOCH": "2025-12-03T19:18:36.417024", "MEAN_MOTION": 14.48945152, "ECCENTRICITY": 0.00249919, "INCLINATION": 86.2835, "RA_OF_ASC_NODE": 353.7481, "ARG_OF_PERICENTER": 253.6431, "MEAN_ANOMALY": 284.0934, "EPHEMERIS_TYPE": 0, "CLASSIFICATION_TYPE": "U", "NORAD_CAT_ID": 34146, "ELEMENT_SET_NO": 999, "REV_AT_EPOCH": 87977, "BSTAR": 0.0014924324, "MEAN_MOTION_DOT": 5.693e-05, "MEAN_MOTION_DDOT": 0}, "tle": {"line1": "1 34146U 97051DZ  25337.80458816  .00005693  00000+0  14924-2 0  9994", "line2": "2 34146  86.2835 353.7481 0024991 253.6431 284.0934 14.48945152879773"}}, "geometry": {"type": "Point", "coordinates": [-33.63539953799718, -81.90473594693856]}}, {"type": "Feature", "properties": {"norad_id": 34159, "name": "IRIDIUM 33 DEB", "group": "iridium-33-debris", "lat": -46.363946295140266, "lon": 48.028872115379464, "alt_km": 751.5891985196258, "timestamp": "2025-12-04T05:42:43.757150+00:00", "meta": {"OBJECT_NAME": "IRIDIUM 33 DEB", "OBJECT_ID": "1997-051EN", "EPOCH": "2025-12-03T16:34:14.750400", "MEAN_MOTION": 14.3845649, "ECCENTRICITY": 0.00264819, "INCLINATION": 86.3516, "RA_OF_ASC_NODE": 52.0991, "ARG_OF_PERICENTER": 319.5224, "MEAN_ANOMALY": 40.4003, "EPHEMERIS_TYPE": 0, "CLASSIFICATION_TYPE": "U", "NORAD_CAT_ID": 34159, "ELEMENT_SET_NO": 999, "REV_AT_EPOCH": 87829, "BSTAR": 0.00061071366, "MEAN_MOTION_DOT": 1.89e-05, "MEAN_MOTION_DDOT": 0}, "tle": {"line1": "1 34159U 97051EN  25337.69044850  .00001890  00000+0  61071-3 0  9995", "line2": "2 34159  86.3516  52.0991 0026481 319.5224  40.4003 14.38456490878295"}}, "geometry": {"type": "Point", "coordinates": [48.028872115379464, -46.363946295140266]}}, {"type": "Feature", "properties": {"norad_id": 34350, "name": "IRIDIUM 33 DEB", "group": "iridium-33-debris", "lat": 48.23094272565181, "lon": -177.62666930671, "alt_km": 723.1741353323514, "timestamp": "2025-12-04T05:42:43.757161+00:00", "meta": {"OBJECT_NAME": "IRIDIUM 33 DEB", "OBJECT_ID": "1997-051ES", "EPOCH": "2025-12-03T13:05:45.086208", "MEAN_MOTION": 14.45352989, "ECCENTRICITY": 0.00218806, "INCLINATION": 86.3282, "RA_OF_ASC_NODE": 6.7966, "ARG_OF_PERICENTER": 164.2068, "MEAN_ANOMALY": 327.3163, "EPHEMERIS_TYPE": 0, "CLASSIFICATION_TYPE": "U", "NORAD_CAT_ID": 34350, "ELEMENT_SET_NO": 999, "REV_AT_EPOCH": 88160, "BSTAR": 0.00045695829, "MEAN_MOTION_DOT": 1.63e-05, "MEAN_MOTION_DDOT": 0}, "tle": {"line1": "1 34350U 97051ES  25337.54566072  .00001630  00000+0  45696-3 0  9994", "line2": "2 34350  86.3282   6.7966 0021880 164.2068 327.3163 14.45352989881604"}}, "geometry": {"type": "Point", "coordinates": [-177.62666930671, 48.23094272565181]}}, {"type": "Feature", "properties": {"norad_id": 34366, "name": "IRIDIUM 33 DEB", "group": "iridium-33-debris", "lat": -16.227150134490866, "lon": -125.93155162870674, "alt_km": 704.304153552841, "timestamp": "2025-12-04T05:42:43.757175+00:00", "meta": {"OBJECT_NAME": "IRIDIUM 33 DEB", "OBJECT_ID": "1997-051FJ", "EPOCH": "2025-12-03T16:10:25.403232", "MEAN_MOTION": 14.53916693, "ECCENTRICITY": 0.00217683, "INCLINATION": 86.3709, "RA_OF_ASC_NODE": 53.2552, "ARG_OF_PERICENTER": 168.8, "MEAN_ANOMALY": 316.5476, "EPHEMERIS_TYPE": 0, "CLASSIFICATION_TYPE": "U", "NORAD_CAT_ID": 34366, "ELEMENT_SET_NO": 999, "REV_AT_EPOCH": 88050, "BSTAR": 0.0018858841, "MEAN_MOTION_DOT": 7.981e-05, "MEAN_MOTION_DDOT": 0}, "tle": {"line1": "1 34366U 97051FJ  25337.67390513  .00007981  00000+0  18859-2 0  9995", "line2": "2 34366  86.3709  53.2552 0021768 168.8000 316.5476 14.53916693880506"}}, "geometry": {"type": "Point", "coordinates": [-125.93155162870674, -16.227150134490866]}}]}